[{"OBJECT_NAME":"CFOSAT","OBJECT_ID":"2018-083A","EPOCH":"2026-03-09T23:32:27.859200","MEAN_MOTION":15.16355885,"ECCENTRICITY":0.000152,"INCLINATION":97.364,"RA_OF_ASC_NODE":76.4206,"ARG_OF_PERICENTER":123.6668,"MEAN_ANOMALY":236.471,"EPHEMERIS_TYPE":0,"CLASSIFICATION_TYPE":"U","NORAD_CAT_ID":43662,"ELEMENT_SET_NO":999,"REV_AT_EPOCH":40740,"BSTAR":0.00010107599,"MEAN_MOTION_DOT":1.896e-5,"MEAN_MOTION_DDOT":0},{"OBJECT_NAME":"CZ-4C DEB","OBJECT_ID":"2018-031H","EPOCH":"2026-03-09T10:10:58.582560","MEAN_MOTION":15.14033759,"ECCENTRICITY":0.00199639,"INCLINATION":98.1663,"RA_OF_ASC_NODE":242.9335,"ARG_OF_PERICENTER":272.748,"MEAN_ANOMALY":87.1465,"EPHEMERIS_TYPE":0,"CLASSIFICATION_TYPE":"U","NORAD_CAT_ID":43266,"ELEMENT_SET_NO":999,"REV_AT_EPOCH":43166,"BSTAR":0.00079064643,"MEAN_MOTION_DOT":0.00014379,"MEAN_MOTION_DDOT":0}]
